ONEWEB-0451             
1 51643U 22012X   23232.99540605  .00000030  00000+0  45187-4 0  9997
2 51643  87.9178 210.7808 0001744  91.6989 268.4343 13.17654166 79168
ONEWEB-0452             
1 51644U 22012Y   23232.99330060  .00000029  00000+0  41743-4 0  9992
2 51644  87.9178 210.7616 0001525  82.4492 277.6812 13.17650570 79179
ONEWEB-0455             
1 51645U 22012Z   23233.01126693  .00000382  00000+0  16314-3 0  9999
2 51645  87.5362 202.4858 0014991 238.4847 121.4880 14.22556420 80769
ONEWEB-0456             
1 51646U 22012AA  23232.52363244 -.00000497  00000+0 -14608-2 0  9992
2 51646  87.8791 241.1418 0002255  97.7792 262.3591 13.10375614 75528
ONEWEB-0457             
1 51647U 22012AB  23233.49401575 -.00000002  00000+0 -42653-4 0  9995
2 51647  87.8802 240.9481 0001733  80.6228 279.5095 13.10367509 75662
ONEWEB-0458             
1 51648U 22012AC  23233.51468883 -.00000633  00000+0 -18498-2 0  9992
2 51648  87.8806 240.9559 0001808  99.6630 260.4702 13.10372883 75624
ONEWEB-0461             
1 51649U 22012AD  23233.16626149  .00000054  00000+0  10632-3 0  9993
2 51649  87.9180 210.6596 0001924  81.8999 278.2351 13.17643523 79402
ONEWEB-0463             
1 51650U 22012AE  23233.83282393  .00000045  00000+0  82103-4 0  9991
2 51650  87.9180 210.6098 0001999  80.3179 279.8178 13.17653433 79288
ONEWEB-0464             
1 51651U 22012AF  23233.51148914 -.00000635  00000+0 -18557-2 0  9994
2 51651  87.8807 240.9450 0002317 102.0114 258.1273 13.10372193 75644
ONEWEB-0468             
1 51652U 22012AG  23232.52521422 -.00000484  00000+0 -14221-2 0  9990
2 51652  87.8810 241.1345 0001866  93.0226 267.1115 13.10376972 75482
ONEWEB-0473             
1 51653U 22012AH  23233.57989688 -.00000438  00000+0 -12924-2 0  9996
2 51653  87.8804 240.9290 0001938  97.1753 262.9595 13.10369673 75634
ONEWEB-0474             
1 51654U 22012AJ  23233.49559486 -.00000035  00000+0 -13709-3 0  9993
2 51654  87.8875 240.8921 0002053 101.8534 258.2823 13.10368537 75609
ONEWEB-0475             
1 51655U 22012AK  23233.84333865 -.00000448  00000+0 -11860-2 0  9997
2 51655  87.9181 210.5849 0001928  92.9053 267.2299 13.17649147 79292
ONEWEB-0490             
1 54113U 22138A   23233.78489070  .00000218  00000+0  51258-3 0  9990
2 54113  87.9291 150.0183 0002299  81.5348 278.6046 13.19727744 41790
ONEWEB-0492             
1 54114U 22138B   23232.74663638  .00000035  00000+0  56159-4 0  9993
2 54114  87.9287 150.2193 0002069  90.3614 269.7755 13.19725337 41668
ONEWEB-0495             
1 54115U 22138C   23233.78910602  .00000104  00000+0  22786-3 0  9990
2 54115  87.9289 150.0259 0001803  90.7631 269.3708 13.19728522 41786
ONEWEB-0497             
1 54116U 22138D   23233.79965041  .00000102  00000+0  22279-3 0  9994
2 54116  87.9290 150.0143 0002047  81.5356 278.6009 13.19725606 41770
ONEWEB-0499             
1 54117U 22138E   23233.78279561  .00005611  00000+0  13980-1 0  9996
2 54117  87.9284 150.0176 0001943  68.9277 291.2063 13.19698045 41783
ONEWEB-0500             
1 54118U 22138F   23233.78702259  .00000151  00000+0  34488-3 0  9994
2 54118  87.9292 150.0109 0002042  78.4211 281.7151 13.19727544 41794
ONEWEB-0501             
1 54119U 22138G   23233.81649354  .00000155  00000+0  35589-3 0  9992
2 54119  87.9290 150.0073 0001800  99.0885 261.0451 13.19725555 41772
ONEWEB-0502             
1 54120U 22138H   23233.80175230  .00000121  00000+0  26930-3 0  9993
2 54120  87.9290 150.0033 0001762  89.2656 270.8678 13.19724768 41790
ONEWEB-0503             
1 54121U 22138J   23233.79120985 -.00000190  00000+0 -50666-3 0  9990
2 54121  87.9288 150.0139 0001754  84.4077 275.7256 13.19725044 41783
ONEWEB-0504             
1 54122U 22138K   23232.79295716  .00000072  00000+0  14845-3 0  9991
2 54122  87.9243 150.2272 0001572  82.4082 277.7229 13.19729069 41667
ONEWEB-0505             
1 54123U 22138L   23233.77438726 -.00000964  00000+0 -24393-2 0  9991
2 54123  87.9288 150.0147 0001844  68.5439 291.5890 13.19730509 41770
ONEWEB-0506             
1 54124U 22138M   23233.29422872  .00000154  00000+0  35222-3 0  9997
2 54124  87.9288 150.1065 0001809  87.7422 272.3917 13.19732834 41700
ONEWEB-0507             
1 54125U 22138N   23233.84596291  .00000046  00000+0  81979-4 0  9997
2 54125  87.9238 150.0373 0001902  86.8606 273.2744 13.19729600 41823
ONEWEB-0508             
1 54126U 22138P   23233.84176195  .00000041  00000+0  69965-4 0  9991
2 54126  87.9287 150.0061 0001833  98.3347 261.7993 13.19726247 41805
ONEWEB-0509             
1 54127U 22138Q   23233.81860572  .00000041  00000+0  69447-4 0  9993
2 54127  87.9288 150.0086 0001770  80.2618 279.8714 13.19724937 41776
ONEWEB-0510             
1 54128U 22138R   23233.76390096  .00000108  00000+0  23397-3 0  9994
2 54128  87.9277 119.5168 0002181  88.2808 271.8575 13.20772968 44164
ONEWEB-0511             
1 54129U 22138S   23233.73856490  .00000083  00000+0  17492-3 0  9998
2 54129  87.9290 150.0244 0001519  71.0063 289.1234 13.19727282 41799
ONEWEB-0512             
1 54130U 22138T   23232.74453872  .00000044  00000+0  76684-4 0  9993
2 54130  87.9286 150.2210 0001610  95.0969 265.0347 13.19725400 41635
ONEWEB-0513             
1 54131U 22138U   23233.77754208  .00000040  00000+0  68502-4 0  9991
2 54131  87.9288 150.0211 0001293  95.3221 264.8060 13.19726154 41656
ONEWEB-0514             
1 54132U 22138V   23233.29209447  .00000067  00000+0  13625-3 0  9993
2 54132  87.9289 150.1146 0001880  75.7521 284.3821 13.19724792 41729
ONEWEB-0515             
1 54133U 22138W   23233.75127470  .00000020  00000+0  17469-4 0  9990
2 54133  87.9129 119.5877 0002772  75.8982 284.2459 13.20769865 44154
ONEWEB-0516             
1 54134U 22138X   23233.79753238 -.00000470  00000+0 -12057-2 0  9999
2 54134  87.9294 150.0094 0002320  78.3930 281.7463 13.19721171 41799
ONEWEB-0517             
1 54135U 22138Y   23233.77646313 -.00000058  00000+0 -17833-3 0  9993
2 54135  87.9244 150.0223 0001621  85.3855 274.7463 13.19728064 41796
ONEWEB-0518             
1 54136U 22138Z   23233.79543798  .00000075  00000+0  15569-3 0  9990
2 54136  87.9246 150.0165 0001796  75.2652 284.8680 13.19724539 41796
ONEWEB-0519             
1 54137U 22138AA  23233.28997734  .00000091  00000+0  19418-3 0  9993
2 54137  87.9290 150.1098 0001557  88.2064 271.9247 13.19727381 41736
ONEWEB-0520             
1 54138U 22138AB  23233.78067682  .00000349  00000+0  84027-3 0  9993
2 54138  87.9245 150.0296 0002644 110.5006 249.6410 13.19726113 41780
ONEWEB-0521             
1 54139U 22138AC  23233.73646876  .00000039  00000+0  64274-4 0  9996
2 54139  87.9287 150.0205 0001718  68.5883 291.5433 13.19723489 41754
ONEWEB-0522             
1 54140U 22138AD  23233.33841871 -.00001433  00000+0 -36129-2 0  9993
2 54140  87.9278 150.1043 0002179  74.3861 285.7512 13.19730854 41713
ONEWEB-0523             
1 54141U 22138AE  23233.73864590  .00000857  00000+0  20752-2 0  9993
2 54141  87.9148 119.6118 0002668  57.8551 302.2841 13.20778056 44157
ONEWEB-0524             
1 54142U 22138AF  23233.72604389  .00000072  00000+0  14525-3 0  9992
2 54142  87.9257 119.5681 0003090  80.2267 279.9215 13.20772532 44155
ONEWEB-0525             
1 54143U 22138AG  23233.73436867  .00000040  00000+0  67118-4 0  9990
2 54143  87.9291 150.0234 0001685  85.6939 274.4387 13.19726266 41788
ONEWEB-0526             
1 54144U 22138AH  23233.16153294  .00000014  00000+0  20508-5 0  9992
2 54144  87.9288 150.1378 0002020  82.1560 277.9802 13.19724727 41680
ONEWEB-0529             
1 54145U 22138AJ  23233.77226545  .00000127  00000+0  28411-3 0  9994
2 54145  87.9288 150.0165 0002020  92.2601 267.8763 13.19728310 41789
ONEWEB-0531             
1 54146U 22138AK  23233.18311297  .00000058  00000+0  10974-3 0  9997
2 54146  87.9267 119.6546 0002925  67.3753 292.7690 13.20771206 44082
ONEWEB-0535             
1 54147U 22138AL  23232.74240706  .00000067  00000+0  13516-3 0  9990
2 54147  87.9288 150.2201 0001982  66.9878 293.1464 13.19727685 41665
ONEWEB-0536             
1 54148U 22138AM  23233.70078153  .00000072  00000+0  14584-3 0  9995
2 54148  87.9266 119.6014 0002479  52.2183 307.9174 13.20770693 44149
GSLV R/B                
1 54149U 22138AN  23233.11387319  .00001994  00000+0  20972-3 0  9990
2 54149  87.3813 117.1589 0021996 279.4325  80.4415 14.88743425 44967
ONEWEB-0527             
1 54642U 22166A   23233.11031509  .00000070  00000+0  13678-3 0  9995
2 54642  87.9165  89.3364 0001968  86.5044 273.6315 13.21825409 35777
ONEWEB-0528             
1 54643U 22166B   23233.64649307 -.00000030  00000+0 -10374-3 0  9993
2 54643  87.9188  89.1786 0001773  85.5001 274.6335 13.21826861 35850
ONEWEB-0539             
1 54644U 22166C   23232.62458828 -.00000009  00000+0 -53810-4 0  9996
2 54644  87.9188  89.3820 0001482  83.3545 276.7758 13.21825291 35711
ONEWEB-0540             
1 54645U 22166D   23233.07246303 -.00000094  00000+0 -25894-3 0  9994
2 54645  87.9191  89.3172 0001545  84.1048 276.0262 13.21825281 35782
ONEWEB-0542             
1 54646U 22166E   23233.31428116  .00000074  00000+0  14831-3 0  9991
2 54646  87.9188  89.2452 0001463  67.2877 292.8412 13.21824262 35815
ONEWEB-0545             
1 54647U 22166F   23233.65909836  .00000014  00000+0  32253-5 0  9996
2 54647  87.9191  89.2157 0001119  83.5391 276.5870 13.21828071 35833
ONEWEB-0580             
1 54648U 22166G   23233.63388841  .00000039  00000+0  63046-4 0  9992
2 54648  87.9187  89.1786 0001547  64.2760 295.8533 13.21825044 35867
ONEWEB-0582             
1 54649U 22166H   23233.52242461  .00000108  00000+0  23016-3 0  9997
2 54649  87.9187  89.2369 0001571  91.8557 268.2757 13.21824571 35836
ONEWEB-0583             
1 54650U 22166J   23233.30796461  .00000020  00000+0  17681-4 0  9994
2 54650  87.9190  89.2871 0002196  91.3779 268.7606 13.21823954 35826
